[{"OBJECT_NAME":"STARLINK-34584","OBJECT_ID":"2025-142B","EPOCH":"2026-03-09T22:50:54.276576","MEAN_MOTION":14.98330275,"ECCENTRICITY":0.00023523,"INCLINATION":70.0013,"RA_OF_ASC_NODE":313.6509,"ARG_OF_PERICENTER":269.9726,"MEAN_ANOMALY":90.1163,"EPHEMERIS_TYPE":0,"CLASSIFICATION_TYPE":"U","NORAD_CAT_ID":64697,"ELEMENT_SET_NO":999,"REV_AT_EPOCH":3952,"BSTAR":0.00018884204,"MEAN_MOTION_DOT":2.161e-5,"MEAN_MOTION_DDOT":0},{"OBJECT_NAME":"SAUDISAT 1A (SO-41)","OBJECT_ID":"2000-057A","EPOCH":"2026-03-09T22:39:31.129056","MEAN_MOTION":14.92876682,"ECCENTRICITY":0.00361512,"INCLINATION":64.5511,"RA_OF_ASC_NODE":249.3562,"ARG_OF_PERICENTER":314.8741,"MEAN_ANOMALY":44.9435,"EPHEMERIS_TYPE":0,"CLASSIFICATION_TYPE":"U","NORAD_CAT_ID":26545,"ELEMENT_SET_NO":999,"REV_AT_EPOCH":37821,"BSTAR":0.0002077791,"MEAN_MOTION_DOT":2.024e-5,"MEAN_MOTION_DDOT":0}]
